start=new Date('2022-12-26T00:00:00.000Z').valueOf();
sats=[{"REF_FRAME":"TEME","MEAN_ELEMENT_THEORY":"SGP4","ECCENTRICITY":"0.00014980","MEAN_MOTION_DDOT":"0.0000000000000","GP_ID":"221449394","COUNTRY_CODE":"US","RA_OF_ASC_NODE":"218.0468","MEAN_MOTION":"15.06387101","CLASSIFICATION_TYPE":"U","MEAN_MOTION_DOT":"-0.00000659","RCS_SIZE":"LARGE","INCLINATION":"53.0534","PERIAPSIS":"546.216","MEAN_ANOMALY":"293.3029","EPHEMERIS_TYPE":"0","OBJECT_NAME":"STARLINK-1189","TLE_LINE1":"1 45221U 20012AV  22359.89287569 -.00000659  00000-0 -25344-4 0  9998","BSTAR":"-0.00002534400000","APOAPSIS":"548.291","TIME_SYSTEM":"UTC","ARG_OF_PERICENTER":"66.8118","FILE":"3722315","SEMIMAJOR_AXIS":"6925.388","LAUNCH_DATE":"2020-02-17","CENTER_NAME":"EARTH","OBJECT_TYPE":"PAYLOAD","TLE_LINE2":"2 45221  53.0534 218.0468 0001498  66.8118 293.3029 15.06387101159080","NORAD_CAT_ID":"45221","REV_AT_EPOCH":"15908","SITE":"AFETR","DECAY_DATE":null,"PERIOD":"95.593","OBJECT_ID":"2020-012AV","ELEMENT_SET_NO":"999","EPOCH":"2022-12-25T21:25:44.459616"},{"EPOCH":"2022-12-25T21:36:20.268576","ELEMENT_SET_NO":"999","SITE":"AFETR","DECAY_DATE":null,"OBJECT_ID":"2020-012AW","PERIOD":"95.593","REV_AT_EPOCH":"15908","NORAD_CAT_ID":"45222","TLE_LINE2":"2 45222  53.0550 218.0167 0001376  79.4403 280.6741 15.06387803159086","OBJECT_TYPE":"PAYLOAD","CENTER_NAME":"EARTH","SEMIMAJOR_AXIS":"6925.386","LAUNCH_DATE":"2020-02-17","FILE":"3722315","ARG_OF_PERICENTER":"79.4403","APOAPSIS":"548.204","BSTAR":"0.00006400200000","TIME_SYSTEM":"UTC","TLE_LINE1":"1 45222U 20012AW  22359.90023459  .00000672  00000-0  64002-4 0  9994","OBJECT_NAME":"STARLINK-1191","EPHEMERIS_TYPE":"0","MEAN_ANOMALY":"280.6741","PERIAPSIS":"546.298","INCLINATION":"53.0550","RCS_SIZE":"LARGE","MEAN_MOTION_DOT":"0.00000672","CLASSIFICATION_TYPE":"U","MEAN_MOTION":"15.06387803","RA_OF_ASC_NODE":"218.0167","COUNTRY_CODE":"US","GP_ID":"221449145","ECCENTRICITY":"0.00013760","MEAN_MOTION_DDOT":"0.0000000000000","MEAN_ELEMENT_THEORY":"SGP4","REF_FRAME":"TEME"},{"EPOCH":"2022-12-25T17:20:13.267392","DECAY_DATE":null,"SITE":"AFETR","PERIOD":"95.593","OBJECT_ID":"2020-012AX","ELEMENT_SET_NO":"999","REV_AT_EPOCH":"15906","TLE_LINE2":"2 45223  53.0532 218.7840 0001526  70.7476 289.3678 15.06381420159065","NORAD_CAT_ID":"45223","OBJECT_TYPE":"PAYLOAD","CENTER_NAME":"EARTH","LAUNCH_DATE":"2020-02-17","SEMIMAJOR_AXIS":"6925.406","FILE":"3722315","ARG_OF_PERICENTER":"70.7476","TLE_LINE1":"1 45223U 20012AX  22359.72237578  .00000686  00000-0  64980-4 0  9994","APOAPSIS":"548.327","TIME_SYSTEM":"UTC","BSTAR":"0.00006498000000","OBJECT_NAME":"STARLINK-1212","EPHEMERIS_TYPE":"0","MEAN_ANOMALY":"289.3678","RCS_SIZE":"LARGE","INCLINATION":"53.0532","PERIAPSIS":"546.214","MEAN_MOTION_DOT":"0.00000686","CLASSIFICATION_TYPE":"U","MEAN_MOTION":"15.06381420","RA_OF_ASC_NODE":"218.7840","COUNTRY_CODE":"US","GP_ID":"221448394","ECCENTRICITY":"0.00015260","MEAN_MOTION_DDOT":"0.0000000000000","MEAN_ELEMENT_THEORY":"SGP4","REF_FRAME":"TEME"},{"MEAN_MOTION":"15.06392724","CLASSIFICATION_TYPE":"U","MEAN_MOTION_DOT":"-0.00000969","INCLINATION":"53.0551","RCS_SIZE":"LARGE","PERIAPSIS":"546.306","REF_FRAME":"TEME","MEAN_ELEMENT_THEORY":"SGP4","ECCENTRICITY":"0.00013430","MEAN_MOTION_DDOT":"0.0000000000000","GP_ID":"221448644","COUNTRY_CODE":"US","RA_OF_ASC_NODE":"218.1275","FILE":"3722315","LAUNCH_DATE":"2020-02-17","SEMIMAJOR_AXIS":"6925.371","CENTER_NAME":"EARTH","OBJECT_TYPE":"PAYLOAD","TLE_LINE2":"2 45225  53.0551 218.1275 0001343  96.2781 263.8361 15.06392724159035","NORAD_CAT_ID":"45225","REV_AT_EPOCH":"15903","OBJECT_ID":"2020-012AZ","DECAY_DATE":null,"SITE":"AFETR","PERIOD":"95.593","ELEMENT_SET_NO":"999","EPOCH":"2022-12-25T20:59:11.666976","MEAN_ANOMALY":"263.8361","EPHEMERIS_TYPE":"0","OBJECT_NAME":"STARLINK-1215","TLE_LINE1":"1 45225U 20012AZ  22359.87444059 -.00000969  00000-0 -46164-4 0  9996","TIME_SYSTEM":"UTC","APOAPSIS":"548.166","BSTAR":"-0.00004616400000","ARG_OF_PERICENTER":"96.2781"},{"MEAN_MOTION_DOT":"0.00000982","INCLINATION":"53.0530","RCS_SIZE":"LARGE","PERIAPSIS":"546.425","CLASSIFICATION_TYPE":"U","MEAN_MOTION":"15.06392637","COUNTRY_CODE":"US","RA_OF_ASC_NODE":"218.1000","GP_ID":"221448895","MEAN_ELEMENT_THEORY":"SGP4","ECCENTRICITY":"0.00011710","MEAN_MOTION_DDOT":"0.0000000000000","REF_FRAME":"TEME","DECAY_DATE":null,"SITE":"AFETR","PERIOD":"95.593","OBJECT_ID":"2020-012BA","ELEMENT_SET_NO":"999","EPOCH":"2022-12-25T21:09:48.366720","TLE_LINE2":"2 45226  53.0530 218.1000 0001171  79.4595 280.6526 15.06392637158991","NORAD_CAT_ID":"45226","REV_AT_EPOCH":"15899","CENTER_NAME":"EARTH","OBJECT_TYPE":"PAYLOAD","FILE":"3722315","SEMIMAJOR_AXIS":"6925.371","LAUNCH_DATE":"2020-02-17","ARG_OF_PERICENTER":"79.4595","OBJECT_NAME":"STARLINK-1217","TLE_LINE1":"1 45226U 20012BA  22359.88180980  .00000982  00000-0  84811-4 0  9992","BSTAR":"0.00008481100000","APOAPSIS":"548.047","TIME_SYSTEM":"UTC","MEAN_ANOMALY":"280.6526","EPHEMERIS_TYPE":"0"},{"REF_FRAME":"TEME","MEAN_ELEMENT_THEORY":"SGP4","ECCENTRICITY":"0.00014870","MEAN_MOTION_DDOT":"0.0000000000000","GP_ID":"221449645","COUNTRY_CODE":"US","RA_OF_ASC_NODE":"218.0064","MEAN_MOTION":"15.06398834","CLASSIFICATION_TYPE":"U","MEAN_MOTION_DOT":"0.00001038","PERIAPSIS":"546.187","RCS_SIZE":"LARGE","INCLINATION":"53.0535","MEAN_ANOMALY":"291.3146","EPHEMERIS_TYPE":"0","OBJECT_NAME":"STARLINK-1221","APOAPSIS":"548.247","TIME_SYSTEM":"UTC","BSTAR":"0.00008854100000","TLE_LINE1":"1 45227U 20012BB  22359.90392531  .00001038  00000-0  88541-4 0  9990","ARG_OF_PERICENTER":"68.8001","FILE":"3722315","SEMIMAJOR_AXIS":"6925.352","LAUNCH_DATE":"2020-02-17","CENTER_NAME":"EARTH","OBJECT_TYPE":"PAYLOAD","NORAD_CAT_ID":"45227","TLE_LINE2":"2 45227  53.0535 218.0064 0001487  68.8001 291.3146 15.06398834159005","REV_AT_EPOCH":"15900","ELEMENT_SET_NO":"999","PERIOD":"95.592","DECAY_DATE":null,"SITE":"AFETR","OBJECT_ID":"2020-012BB","EPOCH":"2022-12-25T21:41:39.146784"},{"OBJECT_NAME":"STARLINK-1222","TLE_LINE1":"1 45228U 20012BC  22359.90761556 -.00001276  00000-0 -66808-4 0  9996","APOAPSIS":"548.339","TIME_SYSTEM":"UTC","BSTAR":"-0.00006680800000","ARG_OF_PERICENTER":"68.2415","MEAN_ANOMALY":"291.8745","EPHEMERIS_TYPE":"0","TLE_LINE2":"2 45228  53.0530 217.9828 0001607  68.2415 291.8745 15.06395817158977","NORAD_CAT_ID":"45228","REV_AT_EPOCH":"15897","SITE":"AFETR","DECAY_DATE":null,"PERIOD":"95.592","OBJECT_ID":"2020-012BC","ELEMENT_SET_NO":"999","EPOCH":"2022-12-25T21:46:57.984384","FILE":"3722315","SEMIMAJOR_AXIS":"6925.361","LAUNCH_DATE":"2020-02-17","CENTER_NAME":"EARTH","OBJECT_TYPE":"PAYLOAD","GP_ID":"221447895","COUNTRY_CODE":"US","RA_OF_ASC_NODE":"217.9828","REF_FRAME":"TEME","MEAN_ELEMENT_THEORY":"SGP4","MEAN_MOTION_DDOT":"0.0000000000000","ECCENTRICITY":"0.00016070","CLASSIFICATION_TYPE":"U","MEAN_MOTION_DOT":"-0.00001276","RCS_SIZE":"LARGE","INCLINATION":"53.0530","PERIAPSIS":"546.113","MEAN_MOTION":"15.06395817"},{"MEAN_MOTION":"15.06399946","CLASSIFICATION_TYPE":"U","MEAN_MOTION_DOT":"0.00001337","INCLINATION":"53.0523","RCS_SIZE":"LARGE","PERIAPSIS":"546.094","REF_FRAME":"TEME","MEAN_ELEMENT_THEORY":"SGP4","MEAN_MOTION_DDOT":"0.0000000000000","ECCENTRICITY":"0.00016170","GP_ID":"221448145","COUNTRY_CODE":"US","RA_OF_ASC_NODE":"218.1500","FILE":"3722315","SEMIMAJOR_AXIS":"6925.349","LAUNCH_DATE":"2020-02-17","CENTER_NAME":"EARTH","OBJECT_TYPE":"PAYLOAD","TLE_LINE2":"2 45229  53.0523 218.1500 0001617  75.8002 284.3167 15.06399946158979","NORAD_CAT_ID":"45229","REV_AT_EPOCH":"15897","SITE":"AFETR","DECAY_DATE":null,"PERIOD":"95.592","OBJECT_ID":"2020-012BD","ELEMENT_SET_NO":"999","EPOCH":"2022-12-25T20:53:52.634112","MEAN_ANOMALY":"284.3167","EPHEMERIS_TYPE":"0","OBJECT_NAME":"STARLINK-1226","TLE_LINE1":"1 45229U 20012BD  22359.87074808  .00001337  00000-0  10861-3 0  9993","TIME_SYSTEM":"UTC","APOAPSIS":"548.334","BSTAR":"0.00010861000000","ARG_OF_PERICENTER":"75.8002"},{"TLE_LINE1":"1 45230U 20012BE  22359.86707369 -.00001152  00000-0 -58486-4 0  9992","APOAPSIS":"548.363","TIME_SYSTEM":"UTC","BSTAR":"-0.00005848600000","OBJECT_NAME":"STARLINK-1227","ARG_OF_PERICENTER":"80.5484","EPHEMERIS_TYPE":"0","MEAN_ANOMALY":"279.5690","REV_AT_EPOCH":"15909","TLE_LINE2":"2 45230  53.0545 218.1676 0001636  80.5484 279.5690 15.06394676159093","NORAD_CAT_ID":"45230","EPOCH":"2022-12-25T20:48:35.166816","SITE":"AFETR","DECAY_DATE":null,"PERIOD":"95.592","OBJECT_ID":"2020-012BE","ELEMENT_SET_NO":"999","LAUNCH_DATE":"2020-02-17","SEMIMAJOR_AXIS":"6925.365","FILE":"3722315","OBJECT_TYPE":"PAYLOAD","CENTER_NAME":"EARTH","GP_ID":"221449395","RA_OF_ASC_NODE":"218.1676","COUNTRY_CODE":"US","REF_FRAME":"TEME","MEAN_MOTION_DDOT":"0.0000000000000","ECCENTRICITY":"0.00016360","MEAN_ELEMENT_THEORY":"SGP4","CLASSIFICATION_TYPE":"U","RCS_SIZE":"LARGE","INCLINATION":"53.0545","PERIAPSIS":"546.097","MEAN_MOTION_DOT":"-0.00001152","MEAN_MOTION":"15.06394676"},{"MEAN_ELEMENT_THEORY":"SGP4","MEAN_MOTION_DDOT":"0.0000000000000","ECCENTRICITY":"0.00015880","REF_FRAME":"TEME","COUNTRY_CODE":"US","RA_OF_ASC_NODE":"218.1146","GP_ID":"221449146","MEAN_MOTION":"15.06406713","MEAN_MOTION_DOT":"0.00002528","INCLINATION":"53.0529","RCS_SIZE":"LARGE","PERIAPSIS":"546.093","CLASSIFICATION_TYPE":"U","MEAN_ANOMALY":"293.6700","EPHEMERIS_TYPE":"0","ARG_OF_PERICENTER":"66.4455","OBJECT_NAME":"STARLINK-1235","TLE_LINE1":"1 45232U 20012BG  22359.87717225  .00002528  00000-0  18849-3 0  9991","TIME_SYSTEM":"UTC","APOAPSIS":"548.293","BSTAR":"0.00018849000000","CENTER_NAME":"EARTH","OBJECT_TYPE":"PAYLOAD","FILE":"3722315","LAUNCH_DATE":"2020-02-17","SEMIMAJOR_AXIS":"6925.328","PERIOD":"95.592","DECAY_DATE":null,"SITE":"AFETR","OBJECT_ID":"2020-012BG","ELEMENT_SET_NO":"999","EPOCH":"2022-12-25T21:03:07.682400","TLE_LINE2":"2 45232  53.0529 218.1146 0001588  66.4455 293.6700 15.06406713159080","NORAD_CAT_ID":"45232","REV_AT_EPOCH":"15908"}];
